{
    "links": {
        "self": "http://www.neowsapp.com/rest/v1/neo/3713942?api_key=iIulBulltgU6a56xZRHN4H3l9WmuAYTsLGpBGhQ2"
    },
    "id": "3713942",
    "neo_reference_id": "3713942",
    "name": "(2015 FP33)",
    "designation": "2015 FP33",
    "nasa_jpl_url": "http://ssd.jpl.nasa.gov/sbdb.cgi?sstr=3713942",
    "absolute_magnitude_h": 24.8,
    "estimated_diameter": {
        "kilometers": {
            "estimated_diameter_min": 0.0291443905,
            "estimated_diameter_max": 0.0651688382
        },
        "meters": {
            "estimated_diameter_min": 29.1443904535,
            "estimated_diameter_max": 65.1688382168
        },
        "miles": {
            "estimated_diameter_min": 0.018109479,
            "estimated_diameter_max": 0.0404940262
        },
        "feet": {
            "estimated_diameter_min": 95.6180819754,
            "estimated_diameter_max": 213.8085311752
        }
    },
    "is_potentially_hazardous_asteroid": false,
    "close_approach_data": [
        {
            "close_approach_date": "2015-03-26",
            "close_approach_date_full": "2015-Mar-26 06:12",
            "epoch_date_close_approach": 1427350320000,
            "relative_velocity": {
                "kilometers_per_second": "27.6829793718",
                "kilometers_per_hour": "99658.7257385869",
                "miles_per_hour": "61924.0565568459"
            },
            "miss_distance": {
                "astronomical": "0.0485741589",
                "lunar": "18.8953478121",
                "kilometers": "7266590.708481543",
                "miles": "4515250.0913215734"
            },
            "orbiting_body": "Earth"
        }
    ],
    "orbital_data": {
        "orbit_id": "6",
        "orbit_determination_date": "2017-04-06 08:35:02",
        "first_observation_date": "2015-03-17",
        "last_observation_date": "2015-03-25",
        "data_arc_in_days": 8,
        "observations_used": 29,
        "orbit_uncertainty": "9",
        "minimum_orbit_intersection": ".0169514",
        "jupiter_tisserand_invariant": "2.770",
        "epoch_osculation": "2457101.5",
        "eccentricity": ".8474084692142987",
        "semi_major_axis": "2.565296327239044",
        "inclination": "5.946040633056455",
        "ascending_node_longitude": "353.5162533054216",
        "orbital_period": "1500.737504232304",
        "perihelion_distance": ".3914424934923431",
        "perihelion_argument": "298.3814103317899",
        "aphelion_distance": "4.739150160985745",
        "perihelion_time": "2457150.839017048879",
        "mean_anomaly": "348.1644550845802",
        "mean_motion": ".2398820573116525",
        "equinox": "J2000",
        "orbit_class": {
            "orbit_class_type": "APO",
            "orbit_class_description": "Near-Earth asteroid orbits which cross the Earth’s orbit similar to that of 1862 Apollo",
            "orbit_class_range": "a (semi-major axis) > 1.0 AU; q (perihelion) < 1.017 AU"
        }
    },
    "is_sentry_object": false
}